0 TBA - TO BE ASSIGNED
1 45325U 91056BP  20062.14929835  .00000015  00000-0  00000+0 0  9996
2 45325  82.5566 321.7763 0222688  34.6272 326.9539 13.60489684   370
0 TBA - TO BE ASSIGNED
1 45324U 91056BN  20062.41533154  .00000013  00000-0  00000+0 0  9998
2 45324  82.5498 322.4631 0026185  85.7107 274.7017 13.20215797   428
0 TBA - TO BE ASSIGNED
1 45323U 91056BM  20062.82926449 +.00000166 +00000-0 +39527-3 0  9994
2 45323 082.5312 322.0205 0007956 055.0401 305.1468 13.17828512000483
0 TBA - TO BE ASSIGNED
1 45322U 91056BL  20062.26362139  .00010755  00000-0  11077-1 0  9994
2 45322  82.6486 322.5522 0251626  34.2581 327.4018 13.63017184   423
0 TBA - TO BE ASSIGNED
1 45321U 91056BK  20062.43467725 +.00025561 +00000-0 +64310-1 0  9998
2 45321 082.5632 322.6336 0021909 102.0339 258.0536 13.18931515000430
0 TBA - TO BE ASSIGNED
1 45320U 91056BJ  20062.67890326  .00000013  00000-0  00000+0 0  9999
2 45320  82.5721 322.1672 0085079  41.4883 319.2737 13.33353606   477
0 TBA - TO BE ASSIGNED
1 45319U 91056BH  20062.14493099  .00000663  00000-0  12852-2 0  9997
2 45319  82.5782 322.6841 0089607  42.0822 318.7049 13.33792819   402
0 SL-14 DEB
1 45318U 91056BG  20062.74699618 -.00000003  00000-0 -39973-4 0  9992
2 45318  82.5716 322.5141 0010992  73.2187 287.0141 13.18258434   731
0 SL-14 DEB
1 45316U 91056BE  20062.77639222 -.00000644  00000-0 -14387-2 0  9999
2 45316  82.5911 322.4859 0104311  92.5217 268.7857 13.26631381   744
0 SL-14 DEB
1 45315U 91056BD  20062.73126852 -.00000051  00000-0 -17036-3 0  9991
2 45315  82.5610 322.5129 0027173 152.3391 207.9182 13.14145698   731
0 SL-14 DEB
1 45314U 91056BC  20062.73863440 -.00000712 +00000-0 -21195-2 0  9995
2 45314 082.5374 322.4288 0049807 182.4019 177.6867 13.08435351000735
0 SL-14 DEB
1 45313U 91056BB  20061.86605036 +.00002415 +00000-0 +44017-2 0  9990
2 45313 082.5830 322.7948 0111337 040.1106 320.8181 13.37879124000634
0 SL-14 DEB
1 45312U 91056BA  20062.15306778  .00000449  00000-0  11296-2 0  9991
2 45312  82.5210 322.3976 0011793 100.4025 259.8428 13.17331916  1699
0 SL-14 DEB
1 45311U 91056AZ  20062.74845477 -.00000027 +00000-0 -10061-3 0  9993
2 45311 082.5520 322.3033 0018765 102.8342 257.4879 13.18163232000867
0 SL-14 DEB
1 45310U 91056AY  20062.75254072 -.00000013 +00000-0 -83040-4 0  9991
2 45310 082.5990 323.3046 0101553 230.0659 129.1497 12.97114050000855
0 SL-14 DEB
1 45309U 91056AX  20062.71586702  .00005915  00000-0  17757-1 0  9996
2 45309  82.5875 322.9321 0111788 288.1694  70.7276 13.04885084   846
0 SL-14 DEB
1 45308U 91056AW  20061.87579021 +.00000358 +00000-0 +84490-3 0  9993
2 45308 082.5767 323.1216 0027949 074.0569 286.3632 13.20871801000750
0 SL-14 DEB
1 45307U 91056AV  20062.70339364 +.00000503 +00000-0 +17420-2 0  9999
2 45307 082.5726 323.2015 0191116 266.5313 091.3919 12.89989985000844
0 SL-14 DEB
1 45306U 91056AU  20062.72879030  .00008636  00000-0  16200-1 0  9998
2 45306  82.6508 322.9722 0132684  72.4336 289.1241 13.35281641  2334
0 SL-14 DEB
1 45305U 91056AT  20061.70605825  .00000867  00000-0  20494-2 0  9992
2 45305  82.5633 323.0572 0038900   9.4025 350.7820 13.22183144   732
0 SL-14 DEB
1 45304U 91056AS  20062.14592434  .00001027  00000-0  30248-2 0  9998
2 45304  82.6984 324.5876 0050730 158.7952 201.5283 13.07145414   788
0 SL-14 DEB
1 45303U 91056AR  20061.71105613  .00007115  00000-0  90333-2 0  9993
2 45303  82.6478 323.1943 0205221  37.4179 324.1053 13.54872869   753
0 SL-14 DEB
1 45301U 91056AP  20062.77694490  .00006009  00000-0  89530-2 0  9992
2 45301  82.5133 321.0839 0173701  20.7156 340.0911 13.47430181   889
0 SL-14 DEB
1 45300U 91056AN  20062.74466848 +.00000391 +00000-0 +13588-2 0  9990
2 45300 082.5578 322.9649 0121704 214.2096 145.1129 12.92466116000857
0 SL-14 DEB
1 45299U 91056AM  20062.78189822  .00003594  00000-0  10679-1 0  9990
2 45299  82.5890 322.9283 0110852 283.9591  74.9217 13.05563052  2288
0 SL-14 DEB
1 45298U 91056AL  20061.80531085  .00007058  00000-0  10186-1 0  9995
2 45298  82.5840 322.6093 0194743  67.8803 294.2884 13.47933787   764
0 SL-14 DEB
1 45296U 91056AJ  20062.72346740 +.00002074 +00000-0 +24978-2 0  9995
2 45296 082.6425 322.3579 0222335 056.1376 306.0708 13.56314124000892
0 SL-14 DEB
1 45295U 91056AH  20061.76631444  .00000235  00000-0  43444-3 0  9992
2 45295  82.5713 322.8248 0091680  44.3572 316.4857 13.34242136   756
0 SL-14 DEB
1 45294U 91056AG  20062.68319255 +.00000196 +00000-0 +47432-3 0  9993
2 45294 082.5692 322.5509 0010077 087.3618 272.8658 13.17434520000875
0 SL-14 DEB
1 45293U 91056AF  20061.15822754  .00006376  00000-0  66410-2 0  9998
2 45293  82.5636 322.6130 0297293  78.1059 285.3254 13.57660271  1585
0 SL-14 DEB
1 45292U 91056AE  20061.13469649  .00000371  00000-0  79045-3 0  9993
2 45292  82.6276 324.0831 0126442 334.5196  24.9731 13.25283996  1540
0 SL-14 DEB
1 45291U 91056AD  20061.95773306 +.00000357 +00000-0 +99722-3 0  9998
2 45291 082.5486 323.0482 0036051 229.8406 129.9554 13.09583757001637
0 SL-14 DEB
1 45290U 91056AC  20061.13372967  .00000401  00000-0  77925-3 0  9996
2 45290  82.6223 323.9011 0128053  86.8513 274.7259 13.31072777  1559
0 SL-14 DEB
1 45289U 91056AB  20062.73770944 -.00001003 +00000-0 -40423-2 0  9991
2 45289 082.5386 322.9982 0171891 220.3591 138.4653 12.82515067001701
0 SL-14 DEB
1 45288U 91056AA  20062.16974248 -.00002466  00000-0 -10116-1 0  9999
2 45288  82.6133 324.2299 0211130 256.9113 100.8348 12.78598664  1650
0 SL-14 DEB
1 45287U 91056Z   20062.11921243  .00000377  00000-0  76211-3 0  9997
2 45287  82.5727 322.6769 0072745  49.5605 311.1839 13.30457078  1711
0 SL-14 DEB
1 45286U 91056Y   20061.19758553 +.00000306 +00000-0 +78528-3 0  9990
2 45286 082.6319 324.3310 0023466 151.2197 209.0224 13.14965829001579
0 SL-14 DEB
1 45285U 91056X   20061.18025274 +.00000417 +00000-0 +13258-2 0  9996
2 45285 082.5689 324.0461 0108456 242.2093 116.7992 12.99278563002032
0 SL-14 DEB
1 45284U 91056W   20062.14554760 -.00001531  00000-0 -29897-2 0  9995
2 45284  82.5589 322.4178 0123779  72.9566 288.5083 13.33893031  1721
0 SL-14 DEB
1 45283U 91056V   20061.14096685  .00002352  00000-0  10630-1 0  9994
2 45283  82.5432 324.3932 0254196 204.4971 154.3874 12.68272263  1954
0 SL-14 DEB
1 45282U 91056U   20062.72465333 -.00000018 +00000-0 -82553-4 0  9993
2 45282 082.6209 323.1605 0014604 165.6000 194.5540 13.14595479002304
0 SL-14 DEB
1 45281U 91056T   20062.14162343  .00002109  00000-0  29635-2 0  9994
2 45281  82.5692 322.1327 0180306  46.8367 314.7684 13.50330593  1732
0 SL-14 DEB
1 45280U 91056S   20061.17739344 +.00000325 +00000-0 +81988-3 0  9994
2 45280 082.5987 323.9488 0025892 315.4417 044.4623 13.16449906002130
0 SL-14 DEB
1 45279U 91056R   20062.69049898 +.00000078 +00000-0 +21251-3 0  9990
2 45279 082.5572 322.7893 0078471 221.2426 138.2743 13.01304136001751
0 SL-14 DEB
1 45278U 91056Q   20062.83923609 -.00000841 +00000-0 -11044-2 0  9994
2 45278 082.6005 321.8795 0215690 061.3741 300.8910 13.53327977002380
0 SL-14 DEB
1 45277U 91056P   20062.12310397 -.00000075  00000-0 -20748-3 0  9990
2 45277  82.5549 322.7244 0133717 317.3748  41.7058 13.19407659  1695
0 SL-14 DEB
1 45276U 91056N   20061.11991011 -.00000196  00000-0 -46949-3 0  9990
2 45276  82.5906 323.6891 0050127  49.7974 310.7525 13.26408580  2106
0 SL-14 DEB
1 45275U 91056M   20062.16290567  .00000006  00000-0 -16545-4 0  9992
2 45275  82.5872 323.0143 0030488   6.0566 354.0921 13.21977099  2238
0 SL-14 DEB
1 45274U 91056L   20062.77139345  .00000219  00000-0  53830-3 0  9996
2 45274  82.5400 322.1916 0028933 126.2678 234.1123 13.16600749  2302
0 SL-14 DEB
1 45273U 91056K   20062.11902660  .00000608  00000-0  10239-2 0  9998
2 45273  82.5660 322.3429 0126374  37.7282 323.2632 13.41201552  1722
0 SL-14 DEB
1 45272U 91056J   20062.84250302 -.00001109 +00000-0 -13196-2 0  9990
2 45272 082.6445 322.2348 0223001 036.2234 325.3780 13.58238615002353
0 SL-14 DEB
1 45271U 91056H   20061.15613506 -.00000084 +00000-0 -28863-3 0  9990
2 45271 082.5716 323.8992 0050895 225.7611 133.9323 13.06715879001560
0 SL-14 DEB
1 45270U 91056G   20062.16773781  .00000046  00000-0  80004-4 0  9995
2 45270  82.5700 322.8263 0033516  78.6738 281.8150 13.21648193  2426
0 SL-14 DEB
1 45269U 91056F   20061.50380360  .00000035  00000-0  55792-4 0  9991
2 45269  82.5776 323.4101 0028045  88.0337 272.3998 13.20372485  2338
0 SL-14 DEB
1 45268U 91056E   20062.48215650 -.00000021  00000-0 -88958-4 0  9994
2 45268  82.5580 322.6236 0010001 165.6624 194.4784 13.15572260  2406
0 SL-14 DEB
1 45267U 91056D   20062.73307796 -.00000024 +00000-0 -99332-4 0  9995
2 45267 082.5691 322.6071 0014121 220.4105 139.5967 13.14014379002488
0 SL-14 DEB
1 45266U 91056C   20062.14490576 -.00000043  00000-0 -14227-3 0  9998
2 45266  82.5549 322.7678 0005694  52.5048 307.6591 13.17897865  2414
0 OBJECT A
1 45265U 98067RJ  20062.51806841  .00001978  00000-0  43706-4 0  9994
2 45265  51.6421 156.2578 0005493 337.9770  22.0982 15.49257958  1597
0 SORTIE
1 45264U 98067RH  20062.83676850 +.00003357 +00000-0 +67333-4 0  9998
2 45264 051.6417 154.6369 0007807 336.7252 023.3382 15.49758059001961
0 SOCRATES
1 45263U 98067RG  20061.15944427  .00003297  00000-0  66092-4 0  9993
2 45263  51.6421 162.9340 0007691 319.2321  40.8091 15.49840446  1738
0 RADSAT-U
1 45262U 98067RF  20062.12564260  .00005504  00000-0  10436-3 0  9996
2 45262  51.6417 158.1379 0007486   1.6311 358.4701 15.49990040  1860
0 QARMAN
1 45261U 98067RE  20062.83456365 +.00007392 +00000-0 +13691-3 0  9992
2 45261 051.6413 154.6218 0008480 327.5260 032.5207 15.50079438001969
0 PHOENIX
1 45260U 98067RD  20061.80295204  .00007923  00000-0  14624-3 0  9997
2 45260  51.6414 159.7322 0008541 323.2098  36.8304 15.50063207  1817
0 HARP
1 45259U 98067RC  20061.80418024  .00007829  00000-0  14544-3 0  9998
2 45259  51.6415 159.7403 0007793 324.5475  35.4995 15.49900793  1805
0 CRYOCUBE
1 45258U 98067RB  20062.70645511 +.00003891 +00000-0 +76339-4 0  9996
2 45258 051.6413 155.2658 0006186 311.8489 048.1971 15.49920400001918
